[sun]
name = Sun
parent = none
radius = 696000.
halo = false
color = 1.,1.,0.8
tex_map = sun
tex_halo = NULL
tex_big_halo = halo
big_halo_size = 200
coord_func = sun_special
lightning = false
albedo = -1.
rot_periode = 1.

[mercury]
name = Mercury
parent = Sun
radius = 2439.7
halo = true
color = 0.9,0.8,0.8
tex_map = mercury
tex_halo = star16x16
coord_func = mercury_special
lightning = true
albedo = 0.06
rot_periode = 1407.509405
rot_rotation_offset = 291.20
rot_obliquity = 7.01
#rot_equator_ascending_node = 48.42
sidereal_period = 87.97

[venus]
name = Venus
parent = Sun
radius = 6052.
halo = true
color = 1.,1.,0.8
tex_map = venus
tex_halo = star16x16
coord_func = venus_special
lightning = true
albedo = 0.77
rot_periode = 5832.479839
rot_rotation_offset = 137.45
rot_obliquity = -178.78
#rot_equator_ascending_node = 300.22
sidereal_period = 224.70

[earth]
name = Earth
parent = Sun
radius = 6378.1
halo = true
color = 0.7,0.8,1.2
tex_map = earthmap
tex_halo = star16x16
coord_func = earth_special
lightning = true
albedo = 0.3
rot_periode = 23.9344694
rot_rotation_offset = 280.5
rot_obliquity = 23.438855

[moon]
name = Moon
parent = Earth
radius = 1738.
halo = false
color = 1.,1.,1.
tex_map = lune
tex_halo = star16x16
coord_func = lunar_special
lightning = true
albedo = 0.12
rot_periode = 655.71986
rot_rotation_offset = 308
rot_obliquity = -23.45

[mars]
name = Mars
parent = Sun
radius = 3394.
halo = true
color = 1.2,0.7,0.7
tex_map = mars
tex_halo = star16x16
coord_func = mars_special
lightning = true
albedo = 0.150
rot_rotation_offset = 136.005
rot_obliquity = 26.72
rot_equator_ascending_node = -82.91
sidereal_period = 686.98

[phobos]
name = Phobos
parent = Mars
radius = 22.2
halo = true 
color = 1.,1.,1. 
tex_map = phoebos 
tex_halo = star16x16 
lightning = true 
albedo = 0.06 
rot_rotation_offset = 318.9 
rot_obliquity = 0.6 
#rot_equator_ascending_node = 186.6 
coord_func = ell_orbit 
orbit_Epoch = 2451545.0 
orbit_Period = 0.31891 
orbit_SemiMajorAxis = 9380 
orbit_Eccentricity = 0.0151 
orbit_Inclination = 1.08 
orbit_AscendingNode = 164.931 
orbit_LongOfPericenter = 2.262 
orbit_MeanLongitude = 317.724 

[deimos] 
name = Deimos 
parent = Mars 
radius = 12.6 
halo = true 
color = 1.,1.,1. 
tex_map = deimos 
tex_halo = star16x16 
lightning = true 
albedo = 0.21 
rot_rotation_offset = 318.9 
rot_obliquity = 0.6 
#rot_equator_ascending_node = 186.6 
coord_func = ell_orbit 
orbit_Epoch = 2451545.0 
orbit_Period = 15.945421 
orbit_SemiMajorAxis = 23460 
orbit_Eccentricity = 0.0002 
orbit_Inclination = 1.793 
orbit_AscendingNode = 339.600 
orbit_LongOfPericenter = 0 
orbit_MeanLongitude = 120 

[jupiter]
name = Jupiter
parent = Sun
radius = 71398.
halo = true
color = 0.8,0.9,1.0
tex_map = jupiter
tex_halo = star16x16
coord_func = jupiter_special
lightning = true
albedo = 0.51
rot_periode = 9.927953
rot_rotation_offset = 151
rot_obliquity = 2.222461
rot_equator_ascending_node = -22.203
sidereal_period = 4331.87

[io]
name = Io
parent = Jupiter
radius = 1821.
halo = true
color = 1.,.8,.7
tex_map = io
tex_halo = star16x16
lightning = true
albedo = 0.61
rot_rotation_offset = 220.8
rot_obliquity = 0.0
coord_func = io_special

[europa]
name = Europa
parent = Jupiter
radius = 1565.
halo = true
color = 1.,1.,1.
tex_map = europa
tex_halo = star16x16
lightning = true
albedo = 0.64
rot_obliquity = 0.0
rot_rotation_offset = 56.2
coord_func = europa_special

[ganymede]
name = Ganymede
parent = Jupiter
radius = 2634.
halo = true
color = 1.,1.,1.
tex_map = ganymede
tex_halo = star16x16
lightning = true
albedo = 0.42
rot_rotation_offset = 262.1
rot_obliquity = 0.1
#rot_equator_ascending_node = 161.6
coord_func = ganymede_special

[callisto]
name = Callisto
parent = Jupiter
radius = 2403.
halo = true
color = 1.,1.,1.
tex_map = callisto
tex_halo = star16x16
lightning = true
albedo = 0.20
rot_rotation_offset = 120.1
rot_obliquity = 0.4
#rot_equator_ascending_node = 160.6
coord_func = calisto_special

[saturn]
name = Saturn
parent = Sun
radius = 60330.
halo = true
color = 1.,1.,0.85
tex_map = saturn
tex_halo = star16x16
coord_func = saturn_special
lightning = true
rings = true
ring_size = 160000.
tex_ring = saturn_rings
albedo = 0.50
rot_periode = 10.65622
rot_rotation_offset = 358.922
rot_obliquity = 28.049
#rot_equator_ascending_node = 169.530
lightning = true
sidereal_period = 10760

[titan]
name = Titan
parent = Saturn
radius = 2575.
halo = true
color = 1.,0.9,0.75
tex_map = titan
tex_halo = star16x16
lightning = true
albedo = 0.21
rot_rotation_offset = 318.9
rot_obliquity = 0.6
#rot_equator_ascending_node = 186.6
coord_func = ell_orbit
orbit_Epoch = 2451545.0
orbit_Period = 15.945421
orbit_SemiMajorAxis = 1221850
orbit_Eccentricity = 0.0292
orbit_Inclination = 0.33
orbit_AscendingNode = 0
orbit_LongOfPericenter = 0
orbit_MeanLongitude = 120

[rhea]
name = Rhea
parent = Saturn 
radius = 764. 
halo = true 
color = 1.,1.,1. 
tex_map = rhea 
tex_halo = star16x16 
lightning = true 
albedo = 0.79 
rot_rotation_offset = 318.9 
rot_obliquity = 0.6 
#rot_equator_ascending_node = 186.6 
coord_func = ell_orbit 
orbit_Epoch = 2451545.0 
orbit_Period = 4.517503 
orbit_SemiMajorAxis = 527367 
orbit_Eccentricity = 0.0010 
orbit_Inclination = 0.35 
orbit_AscendingNode = 0 
orbit_LongOfPericenter = 0 
orbit_MeanLongitude = 120

[tethys]
name = Tethys
parent = Saturn 
radius = 529.8 
halo = true 
color = 1.,1.,1. 
tex_map = rhea 
tex_halo = star16x16 
lightning = true 
albedo = 0.99 
rot_rotation_offset = 318.9 
rot_obliquity = 0.6 
#rot_equator_ascending_node = 186.6 
coord_func = ell_orbit 
orbit_Epoch = 2451545.0 
orbit_Period = 1.887803 
orbit_SemiMajorAxis = 294992 
orbit_Eccentricity = 0.0001 
orbit_Inclination = 1.09 
orbit_AscendingNode = 0 
orbit_LongOfPericenter = 0 
orbit_MeanLongitude = 120 

[uranus]
name = Uranus
parent = Sun
radius = 26200.
halo = true
color = 0.75,0.95,1.
tex_map = uranus
tex_halo = star16x16
coord_func = uranus_special
lightning = true
albedo = 0.66
rot_periode = 17.24
rot_rotation_offset = 331.18
rot_obliquity = -97.81
#rot_equator_ascending_node = 167.76
sidereal_period = 30685

[neptune]
name = Neptune
parent = Sun
radius = 25225.
halo = true
color = 0.75,0.75,1.
tex_map = neptune
tex_halo = star16x16
coord_func = neptune_special
lightning = true
albedo = 0.62
rot_periode = 16.11
rot_rotation_offset = 228.65
rot_obliquity = 28.03
rot_equator_ascending_node = 180
#49.235
sidereal_period = 60189

[pluto]
name = Pluto
parent = Sun
radius = 1137.
halo = true
color = 1.,1.,1.
tex_map = lune
tex_halo = star16x16
coord_func = pluto_special
lightning = true
albedo = 0.55
rot_periode = 153.293904
rot_rotation_offset = 320.75
rot_obliquity = -115.60
#rot_equator_ascending_node = 228.34
sidereal_period = 90797

[charon]
name = Charon
parent = Pluto
radius = 586.
halo = true
color = 1.,1.,1.
tex_map = lune
tex_halo = star16x16
lightning = true
albedo = 0.35
rot_rotation_offset = 213.3
rot_obliquity = 1.0
#rot_equator_ascending_node = 287.6
coord_func = ell_orbit
orbit_Epoch = 2451545.0
orbit_Period = 6.387246
orbit_SemiMajorAxis = 19636
orbit_Eccentricity = 0.0002
orbit_Inclination = 0.0048
orbit_AscendingNode = 93.5582
orbit_LongOfPericenter = 227.3188
orbit_MeanLongitude = 320.7583
